[{"OBJECT_NAME":"STARLINK-5232","OBJECT_ID":"2023-021AZ","EPOCH":"2026-03-09T17:14:54.333024","MEAN_MOTION":14.98347429,"ECCENTRICITY":0.00033761,"INCLINATION":70.0008,"RA_OF_ASC_NODE":164.1943,"ARG_OF_PERICENTER":275.1782,"MEAN_ANOMALY":84.8992,"EPHEMERIS_TYPE":0,"CLASSIFICATION_TYPE":"U","NORAD_CAT_ID":55675,"ELEMENT_SET_NO":999,"REV_AT_EPOCH":16929,"BSTAR":0.000156189,"MEAN_MOTION_DOT":1.772e-5,"MEAN_MOTION_DDOT":0},{"OBJECT_NAME":"LEMUR-2-EMERSONROSE","OBJECT_ID":"2025-052BD","EPOCH":"2026-03-09T22:41:34.308672","MEAN_MOTION":14.98235234,"ECCENTRICITY":0.00026118,"INCLINATION":97.701,"RA_OF_ASC_NODE":323.5746,"ARG_OF_PERICENTER":47.547,"MEAN_ANOMALY":312.5973,"EPHEMERIS_TYPE":0,"CLASSIFICATION_TYPE":"U","NORAD_CAT_ID":63261,"ELEMENT_SET_NO":999,"REV_AT_EPOCH":5387,"BSTAR":0.00054278878,"MEAN_MOTION_DOT":6.392e-5,"MEAN_MOTION_DDOT":0}]
